#cP2023  7 17  0  0  0.00000000     289 d+D   IGS20 EXT AIUB
## 2271  86400.00000000   300.00000000 60142 0.0000000000000
+   77   G01G02G03G04G05G06G07G08G09G10G11G12G13G14G15G16G17
+        G18G19G20G21G22G23G24G25G26G27G28G29G31G32R01R02R03
+        R04R05R07R08R09R11R12R13R14R15R16R17R18R19R20R21R22
+        R24R25E02E03E04E05E07E08E09E10E11E12E13E14E15E18E19
+        E21E24E25E26E27E30E31E34E36  0  0  0  0  0  0  0  0
++         6  8  6  7  7  6  7  6  5  7  6  7  7  7  7  8  8
++         6  7  7  7  7  6  6  5  7  6  7  7  6  6  9  7  9
++         8  8  8  8  7  7  6  8  7  6  7  8  6  9  9  8  7
++         8  7  6  7  6  6  6  7  6  7  6  6  6  8  7  7  6
++         6  6  6  6  6  6  6  7  6  0  0  0  0  0  0  0  0
%c M  cc GPS ccc cccc cccc cccc cccc ccccc ccccc ccccc ccccc
%c cc cc ccc ccc cccc cccc cccc cccc ccccc ccccc ccccc ccccc
%f  1.2500000  1.025000000  0.00000000000  0.000000000000000
%f  0.0000000  0.000000000  0.00000000000  0.000000000000000
%i    0    0    0    0      0      0      0      0         0
%i    0    0    0    0      0      0      0      0         0
/* CENTER FOR ORBIT DETERMINATION IN EUROPE (CODE)          
/* RAPID ORBIT PREDICTION (24 HOURS) FOR YEAR-DAY 23198     
/* THIS IS A PREDICTED ORBIT, USE WITH CARE.                
/* PCV:IGS20      OL/AL:FES2014b NONE     YN ORB:CoN CLK:BRD
*  2023  7 17  9 45  0.00000000
PG01  14163.800704 -20592.898992   8112.017534    172.613079               P   P
PG02  15428.436985 -16078.307305  14836.439150   -575.291867               P   P
PG03  18350.859390 -12655.239890 -14490.833691   -228.981536               P   P
PG04   7774.066191 -14085.119272 -21101.910499     98.214673               P   P
PG05 -26182.423252   4784.608647   -731.255380   -135.216980               P   P
PG06  -8406.718219 -14872.520064 -20250.535394    577.104991               P   P
PG07   4488.993055 -25108.192875   6902.098460    122.681535               P   P
PG08  16309.686770  -3297.368050  20710.706551   -132.614490               P   P
PG09  -1760.083659 -20509.303626 -16835.274631   -110.123787               P   P
PG10  12701.577072  11848.772180  20362.472722    -45.492432               P   P
PG11 -16114.836570    285.008889 -21093.071851   -279.670014               P   P
PG12 -21563.200710  10116.822685 -11944.419930   -401.718270               P   P
PG13 -18218.697622  -6117.533539  18241.463113    548.216392               P   P
PG14  -9056.761372 -13909.185447  20784.871683    124.967972               P   P
PG15 -15570.744358   5985.793624  20249.886116     58.817743               P   P
PG16  26456.783283   1314.778705  -4398.099706   -479.775129               P   P
PG17 -13325.527395 -22723.866145   3312.980589    721.107685               P   P
PG18  -3394.629584  24634.624462   9089.089461   -348.667565               P   P
PG19 -17020.003823 -20025.352325  -5116.992261    345.032998               P   P
PG20 -24151.492212    -70.951563 -10799.218453    422.225387               P   P
PG21  16007.169679 -12815.194916  16908.932742    152.051291               P   P
PG22  18150.318932  17950.995638  -7162.925074    513.967453               P   P
PG23  -1263.954675  15216.353677  21719.559597     44.209930               P   P
PG24 -14638.310165  17901.917509  12316.813591   -260.528331               P   P
PG25  -9352.380530  15658.972300 -19530.289830    456.630657               P   P
PG26  21497.891057   6252.915065 -14664.271253    236.202370               P   P
PG27  20266.881574   8785.385150  14789.108918     -4.783235               P   P
PG28   8258.478116  16646.789362 -18998.407311     82.216575               P   P
PG29   -943.992132  19778.895488 -17705.743894   -605.696634               P   P
PG31  14533.715773   5269.823485 -21777.749845   -220.205618               P   P
PG32  16509.133907  20939.308227    727.526280   -522.793699               P   P
PR01 -22191.567901 -12339.548442  -2521.851835     61.548801               P   P
PR02 -20369.695639  -3003.994318  15056.629708    -22.586689               P   P
PR03  -7054.235320   8534.775555  23021.209052     81.695038               P   P
PR04   9801.515475  14911.691646  18260.297667    195.281037               P   P
PR05  21374.225118  13478.653489   3581.246720    115.905920               P   P
PR07   6340.631183  -8900.780873 -23011.278914     60.354944               P   P
PR08 -10051.940630 -14927.303931 -18006.274232    -71.697718               P   P
PR09  22005.463137  -9774.376150  -8271.919157    131.619933               P   P
PR11   3906.780576 -14294.785739  20770.929353   -106.652933               P   P
PR12 -13927.286995  -3163.141235  21162.709125     29.187680               P   P
PR13 -21820.150779   8400.963134  10191.442998    -37.193548               P   P
PR14 -17374.006128  16401.114010  -8948.076240     24.970858               P   P
PR15  -2757.954484  13854.168706 -21216.140981     87.765404               P   P
PR16  13616.348185   3163.718725 -21311.626085     16.735326               P   P
PR17  -5550.663749  20808.506697 -13631.494913      0.555157               P   P
PR18   1678.631843  25354.170628   2503.638355     92.006655               P   P
PR19   7143.713693  18216.665067  16352.236414   -240.132886               P   P
PR20  10304.179036  -3137.331560  23121.445924    -96.709809               P   P
PR21   5144.391106 -21600.278247  12578.673673    -23.333630               P   P
PR22  -1331.626017 -25236.656194  -3411.791865     96.572071               P   P
PR24 -10597.286561   4214.596556 -22803.773804    -16.884066               P   P
PR25   6691.618410 -20529.388773  13601.685265     46.916914               P   P
PE02   4512.019122  16188.240452 -24365.638506     50.259709               P   P
PE03  12009.937439  25051.699291  10191.077092    -36.843083               P   P
PE04 -22453.096649 -17494.952861   8141.313832   -168.583454               P   P
PE05  -5597.907339  18042.961801  22791.252940      0.387654               P   P
PE07  19963.882407   -205.317280 -21842.650769    -60.561415               P   P
PE08  22343.199916  17761.213897  -7810.881065   -115.723812               P   P
PE09 -19961.164940    -31.059458  21866.653315    -87.600055               P   P
PE10 -16688.619236     66.384890 -24459.320557   -549.140265               P   P
PE11 -18089.396019  11744.227994 -20294.948794   2506.173418               P   P
PE12 -12995.880280 -10616.074902 -24392.378168   -621.540231               P   P
PE13  18010.666749 -11028.295893  20735.017005    -19.322590               P   P
PE14 -20809.873721   4367.195524 -23216.590248    284.654870               P   P
PE15  12743.171398  10975.878852  24355.432049    -37.762777               P   P
PE18   8331.058482 -15459.617345  18638.248435 999999.999999               P   P
PE19  -9890.860090 -24973.822692 -12430.416843  -2057.669146               P   P
PE21  16297.923952 -16065.638696  18775.605305   -541.209244               P   P
PE24 -28923.087876   6103.536926  -1380.786597   -214.198291               P   P
PE25 -16647.891999  15965.419711 -18541.487809   -608.419328               P   P
PE26  12345.643407 -26562.945904   4282.394537    165.489658               P   P
PE27  28781.527036  -6624.400788   2016.584293   -101.299849               P   P
PE30  23833.906011   7045.919883 -16087.211103   -342.434570               P   P
PE31 -24170.025643  -6627.666473  15762.869996     -0.568216               P   P
PE34    143.141594  26240.307674  13672.756550    -56.530075               P   P
PE36 -12673.629894  26274.277781  -5040.056132    -87.188584               P   P
EOF
